[Satellite]
VERSION=1.1
NAME=MOLNIYA 1-S
NICKNAME=MOLNIYA 1-S
TLE1=1 07392U 74060A   15054.58004308 -.00000367  00000-0  00000+0 0  9997
TLE2=2 07392  10.5392 316.9158 0011291 148.3322   4.0904  1.00285644 92731
